{
    "links": {
        "self": "http://www.neowsapp.com/rest/v1/neo/3703781?api_key=iIulBulltgU6a56xZRHN4H3l9WmuAYTsLGpBGhQ2"
    },
    "id": "3703781",
    "neo_reference_id": "3703781",
    "name": "(2015 AD45)",
    "designation": "2015 AD45",
    "nasa_jpl_url": "http://ssd.jpl.nasa.gov/sbdb.cgi?sstr=3703781",
    "absolute_magnitude_h": 23.7,
    "estimated_diameter": {
        "kilometers": {
            "estimated_diameter_min": 0.0483676488,
            "estimated_diameter_max": 0.1081533507
        },
        "meters": {
            "estimated_diameter_min": 48.3676488219,
            "estimated_diameter_max": 108.1533506775
        },
        "miles": {
            "estimated_diameter_min": 0.0300542543,
            "estimated_diameter_max": 0.0672033557
        },
        "feet": {
            "estimated_diameter_min": 158.6865169607,
            "estimated_diameter_max": 354.8338390368
        }
    },
    "is_potentially_hazardous_asteroid": false,
    "close_approach_data": [
        {
            "close_approach_date": "2015-02-17",
            "close_approach_date_full": "2015-Feb-17 01:59",
            "epoch_date_close_approach": 1424138340000,
            "relative_velocity": {
                "kilometers_per_second": "2.9425680757",
                "kilometers_per_hour": "10593.2450725144",
                "miles_per_hour": "6582.2305285299"
            },
            "miss_distance": {
                "astronomical": "0.177214546",
                "lunar": "68.936458394",
                "kilometers": "26510918.61461702",
                "miles": "16473120.958354076"
            },
            "orbiting_body": "Earth"
        }
    ],
    "orbital_data": {
        "orbit_id": "10",
        "orbit_determination_date": "2017-04-06 08:36:24",
        "first_observation_date": "2015-01-15",
        "last_observation_date": "2015-02-21",
        "data_arc_in_days": 37,
        "observations_used": 37,
        "orbit_uncertainty": "6",
        "minimum_orbit_intersection": ".177255",
        "jupiter_tisserand_invariant": "4.109",
        "epoch_osculation": "2459000.5",
        "eccentricity": ".3227376919848747",
        "semi_major_axis": "1.7204581785177",
        "inclination": "4.610403450902028",
        "ascending_node_longitude": "141.8296223170326",
        "orbital_period": "824.2607255446856",
        "perihelion_distance": "1.165201476826396",
        "perihelion_argument": "5.503779824188348",
        "aphelion_distance": "2.275714880209004",
        "perihelion_time": "2458718.771445251895",
        "mean_anomaly": "123.0463572582524",
        "mean_motion": ".4367550082676884",
        "equinox": "J2000",
        "orbit_class": {
            "orbit_class_type": "AMO",
            "orbit_class_description": "Near-Earth asteroid orbits similar to that of 1221 Amor",
            "orbit_class_range": "1.017 AU < q (perihelion) < 1.3 AU"
        }
    },
    "is_sentry_object": false
}